{
  "type": "FeatureCollection",
  "features": [
    {
      "type": "Feature",
      "properties": {
        "norad_id": 35669,
        "name": "COSMOS 2251 DEB",
        "group": "cosmos-2251-debris",
        "lat": -33.08529230585668,
        "lon": -16.65604644448662,
        "alt_km": 856.4946137849756,
        "timestamp": "2025-12-16T23:36:36.594523+00:00",
        "meta_object_name": "COSMOS 2251 DEB",
        "meta_object_id": "1993-036APL",
        "meta_epoch": "2025-12-16T04:49:40.984320",
        "meta_mean_motion": 13.57162572,
        "meta_eccentricity": 0.03877654,
        "meta_inclination": 73.8585,
        "meta_ra_of_asc_node": 153.7447,
        "meta_arg_of_pericenter": 264.9065,
        "meta_mean_anomaly": 90.7689,
        "meta_ephemeris_type": 0,
        "meta_classification_type": "U",
        "meta_norad_cat_id": 35669,
        "meta_element_set_no": 999,
        "meta_rev_at_epoch": 60836,
        "meta_bstar": 0.0008243538,
        "meta_mean_motion_dot": 9.32e-06,
        "meta_mean_motion_ddot": 0,
        "tle_line1": "1 35669U 93036APL 25350.20116880  .00000932  00000+0  82435-3 0  9999",
        "tle_line2": "2 35669  73.8585 153.7447 0387765 264.9065  90.7689 13.57162572608367"
      },
      "geometry": {
        "type": "Point",
        "coordinates": [
          -16.65604644448662,
          -33.08529230585668
        ]
      }
    },
    {
      "type": "Feature",
      "properties": {
        "norad_id": 35670,
        "name": "COSMOS 2251 DEB",
        "group": "cosmos-2251-debris",
        "lat": 72.8827390121984,
        "lon": 166.1254898777811,
        "alt_km": 573.4942233946513,
        "timestamp": "2025-12-16T23:36:36.594533+00:00",
        "meta_object_name": "COSMOS 2251 DEB",
        "meta_object_id": "1993-036APM",
        "meta_epoch": "2025-12-14T21:21:55.582560",
        "meta_mean_motion": 14.93987644,
        "meta_eccentricity": 0.0037863,
        "meta_inclination": 73.8951,
        "meta_ra_of_asc_node": 60.1197,
        "meta_arg_of_pericenter": 20.3241,
        "meta_mean_anomaly": 339.9438,
        "meta_ephemeris_type": 0,
        "meta_classification_type": "U",
        "meta_norad_cat_id": 35670,
        "meta_element_set_no": 999,
        "meta_rev_at_epoch": 87759,
        "meta_bstar": 0.00068268578,
        "meta_mean_motion_dot": 7.347e-05,
        "meta_mean_motion_ddot": 0,
        "tle_line1": "1 35670U 93036APM 25348.89022665  .00007347  00000+0  68269-3 0  9996",
        "tle_line2": "2 35670  73.8951  60.1197 0037863  20.3241 339.9438 14.93987644877599"
      },
      "geometry": {
        "type": "Point",
        "coordinates": [
          166.1254898777811,
          72.8827390121984
        ]
      }
    },
    {
      "type": "Feature",
      "properties": {
        "norad_id": 35671,
        "name": "COSMOS 2251 DEB",
        "group": "cosmos-2251-debris",
        "lat": -16.69185443405426,
        "lon": -103.70882382313495,
        "alt_km": 715.3745737822528,
        "timestamp": "2025-12-16T23:36:36.594543+00:00",
        "meta_object_name": "COSMOS 2251 DEB",
        "meta_object_id": "1993-036APN",
        "meta_epoch": "2025-12-12T06:07:34.704192",
        "meta_mean_motion": 14.48347657,
        "meta_eccentricity": 0.00414664,
        "meta_inclination": 74.018,
        "meta_ra_of_asc_node": 80.2233,
        "meta_arg_of_pericenter": 254.3311,
        "meta_mean_anomaly": 138.579,
        "meta_ephemeris_type": 0,
        "meta_classification_type": "U",
        "meta_norad_cat_id": 35671,
        "meta_element_set_no": 999,
        "meta_rev_at_epoch": 86756,
        "meta_bstar": 0.00036575096,
        "meta_mean_motion_dot": 1.355e-05,
        "meta_mean_motion_ddot": 0,
        "tle_line1": "1 35671U 93036APN 25346.25526278  .00001355  00000+0  36575-3 0  9992",
        "tle_line2": "2 35671  74.0180  80.2233 0041466 254.3311 138.5790 14.48347657867566"
      },
      "geometry": {
        "type": "Point",
        "coordinates": [
          -103.70882382313495,
          -16.69185443405426
        ]
      }
    },
    {
      "type": "Feature",
      "properties": {
        "norad_id": 35674,
        "name": "COSMOS 2251 DEB",
        "group": "cosmos-2251-debris",
        "lat": 15.776762363014091,
        "lon": 123.86436523643434,
        "alt_km": 779.4362897210722,
        "timestamp": "2025-12-16T23:36:36.594554+00:00",
        "meta_object_name": "COSMOS 2251 DEB",
        "meta_object_id": "1993-036APR",
        "meta_epoch": "2025-12-15T15:29:32.958240",
        "meta_mean_motion": 14.54257795,
        "meta_eccentricity": 0.00961311,
        "meta_inclination": 74.0597,
        "meta_ra_of_asc_node": 311.022,
        "meta_arg_of_pericenter": 355.1277,
        "meta_mean_anomaly": 4.8939,
        "meta_ephemeris_type": 0,
        "meta_classification_type": "U",
        "meta_norad_cat_id": 35674,
        "meta_element_set_no": 999,
        "meta_rev_at_epoch": 86153,
        "meta_bstar": 0.0013284232,
        "meta_mean_motion_dot": 5.963e-05,
        "meta_mean_motion_ddot": 0,
        "tle_line1": "1 35674U 93036APR 25349.64552035  .00005963  00000+0  13284-2 0  9991",
        "tle_line2": "2 35674  74.0597 311.0220 0096131 355.1277   4.8939 14.54257795861533"
      },
      "geometry": {
        "type": "Point",
        "coordinates": [
          123.86436523643434,
          15.776762363014091
        ]
      }
    },
    {
      "type": "Feature",
      "properties": {
        "norad_id": 35701,
        "name": "COSMOS 2251 DEB",
        "group": "cosmos-2251-debris",
        "lat": 59.43265017971023,
        "lon": -35.69396981966065,
        "alt_km": 911.9678576113429,
        "timestamp": "2025-12-16T23:36:36.594564+00:00",
        "meta_object_name": "COSMOS 2251 DEB",
        "meta_object_id": "1993-036APW",
        "meta_epoch": "2025-12-06T05:57:57.623904",
        "meta_mean_motion": 13.80843435,
        "meta_eccentricity": 0.02897209,
        "meta_inclination": 74.0028,
        "meta_ra_of_asc_node": 313.2955,
        "meta_arg_of_pericenter": 164.0681,
        "meta_mean_anomaly": 196.98,
        "meta_ephemeris_type": 0,
        "meta_classification_type": "U",
        "meta_norad_cat_id": 35701,
        "meta_element_set_no": 999,
        "meta_rev_at_epoch": 62069,
        "meta_bstar": 0.0021223911,
        "meta_mean_motion_dot": 3.05e-05,
        "meta_mean_motion_ddot": 0,
        "tle_line1": "1 35701U 93036APW 25340.24858361  .00003050  00000+0  21224-2 0  9998",
        "tle_line2": "2 35701  74.0028 313.2955 0289720 164.0681 196.9800 13.80843435620696"
      },
      "geometry": {
        "type": "Point",
        "coordinates": [
          -35.69396981966065,
          59.43265017971023
        ]
      }
    },
    {
      "type": "Feature",
      "properties": {
        "norad_id": 35703,
        "name": "COSMOS 2251 DEB",
        "group": "cosmos-2251-debris",
        "lat": -42.48988685066359,
        "lon": 19.077570157523713,
        "alt_km": 640.8569018932731,
        "timestamp": "2025-12-16T23:36:36.594574+00:00",
        "meta_object_name": "COSMOS 2251 DEB",
        "meta_object_id": "1993-036APY",
        "meta_epoch": "2025-12-15T20:25:28.556544",
        "meta_mean_motion": 14.90392841,
        "meta_eccentricity": 0.00646354,
        "meta_inclination": 74.0432,
        "meta_ra_of_asc_node": 36.5378,
        "meta_arg_of_pericenter": 105.3877,
        "meta_mean_anomaly": 255.4458,
        "meta_ephemeris_type": 0,
        "meta_classification_type": "U",
        "meta_norad_cat_id": 35703,
        "meta_element_set_no": 999,
        "meta_rev_at_epoch": 66662,
        "meta_bstar": 0.00039261957,
        "meta_mean_motion_dot": 3.941e-05,
        "meta_mean_motion_ddot": 0,
        "tle_line1": "1 35703U 93036APY 25349.85102496  .00003941  00000+0  39262-3 0  9998",
        "tle_line2": "2 35703  74.0432  36.5378 0064635 105.3877 255.4458 14.90392841666627"
      },
      "geometry": {
        "type": "Point",
        "coordinates": [
          19.077570157523713,
          -42.48988685066359
        ]
      }
    },
    {
      "type": "Feature",
      "properties": {
        "norad_id": 35705,
        "name": "COSMOS 2251 DEB",
        "group": "cosmos-2251-debris",
        "lat": -3.5451366739771157,
        "lon": -51.317765660862285,
        "alt_km": 663.5522908482144,
        "timestamp": "2025-12-16T23:36:36.594585+00:00",
        "meta_object_name": "COSMOS 2251 DEB",
        "meta_object_id": "1993-036AQA",
        "meta_epoch": "2025-12-13T16:30:25.570944",
        "meta_mean_motion": 14.72285684,
        "meta_eccentricity": 0.00330748,
        "meta_inclination": 74.2763,
        "meta_ra_of_asc_node": 133.9994,
        "meta_arg_of_pericenter": 83.0917,
        "meta_mean_anomaly": 277.4017,
        "meta_ephemeris_type": 0,
        "meta_classification_type": "U",
        "meta_norad_cat_id": 35705,
        "meta_element_set_no": 999,
        "meta_rev_at_epoch": 85940,
        "meta_bstar": 0.003032246,
        "meta_mean_motion_dot": 0.00019351,
        "meta_mean_motion_ddot": 0,
        "tle_line1": "1 35705U 93036AQA 25347.68779596  .00019351  00000+0  30322-2 0  9999",
        "tle_line2": "2 35705  74.2763 133.9994 0033074  83.0917 277.4017 14.72285684859405"
      },
      "geometry": {
        "type": "Point",
        "coordinates": [
          -51.317765660862285,
          -3.5451366739771157
        ]
      }
    }
  ]
}